[{"OBJECT_NAME":"STARLINK-2659","OBJECT_ID":"2021-040AR","EPOCH":"2026-03-10T00:00:02.999808","MEAN_MOTION":15.25319872,"ECCENTRICITY":0.00017179,"INCLINATION":53.1369,"RA_OF_ASC_NODE":189.5235,"ARG_OF_PERICENTER":100.5307,"MEAN_ANOMALY":340.8847,"EPHEMERIS_TYPE":0,"CLASSIFICATION_TYPE":"U","NORAD_CAT_ID":48467,"ELEMENT_SET_NO":999,"REV_AT_EPOCH":579,"BSTAR":0.055721762,"MEAN_MOTION_DOT":0.01563591,"MEAN_MOTION_DDOT":0},{"OBJECT_NAME":"FENGYUN 1C DEB","OBJECT_ID":"1999-025BGL","EPOCH":"2026-03-09T07:30:56.932416","MEAN_MOTION":15.47792324,"ECCENTRICITY":0.00422427,"INCLINATION":98.9801,"RA_OF_ASC_NODE":196.8552,"ARG_OF_PERICENTER":197.9503,"MEAN_ANOMALY":162.0253,"EPHEMERIS_TYPE":0,"CLASSIFICATION_TYPE":"U","NORAD_CAT_ID":31090,"ELEMENT_SET_NO":999,"REV_AT_EPOCH":2170,"BSTAR":0.0021818175,"MEAN_MOTION_DOT":0.00118704,"MEAN_MOTION_DDOT":0}]
